{
  "type": "FeatureCollection",
  "features": [
    {
      "type": "Feature",
      "properties": {
        "norad_id": 57400,
        "name": "TIANMU-1 08",
        "group": "weather",
        "lat": 74.7746374393324,
        "lon": 6.071999727521015,
        "alt_km": 469.6337694605718,
        "timestamp": "2025-12-10T09:57:44.348137+00:00",
        "meta_object_name": "TIANMU-1 08",
        "meta_object_id": "2023-101B",
        "meta_epoch": "2025-12-09T21:03:18.141120",
        "meta_mean_motion": 15.27990194,
        "meta_eccentricity": 0.0007562,
        "meta_inclination": 97.2865,
        "meta_ra_of_asc_node": 33.5885,
        "meta_arg_of_pericenter": 91.7486,
        "meta_mean_anomaly": 268.462,
        "meta_ephemeris_type": 0,
        "meta_classification_type": "U",
        "meta_norad_cat_id": 57400,
        "meta_element_set_no": 999,
        "meta_rev_at_epoch": 13271,
        "meta_bstar": 0.00042432,
        "meta_mean_motion_dot": 0.0001153,
        "meta_mean_motion_ddot": 0,
        "tle_line1": "1 57400U 23101B   25343.87729330  .00011530  00000+0  42432-3 0  9996",
        "tle_line2": "2 57400  97.2865  33.5885 0007562  91.7486 268.4620 15.27990194132711"
      },
      "geometry": {
        "type": "Point",
        "coordinates": [
          6.071999727521015,
          74.7746374393324
        ]
      }
    },
    {
      "type": "Feature",
      "properties": {
        "norad_id": 57401,
        "name": "TIANMU-1 09",
        "group": "weather",
        "lat": 30.508420304399632,
        "lon": -142.04962419157167,
        "alt_km": 477.80985842115206,
        "timestamp": "2025-12-10T09:57:44.348147+00:00",
        "meta_object_name": "TIANMU-1 09",
        "meta_object_id": "2023-101C",
        "meta_epoch": "2025-12-09T20:44:20.858784",
        "meta_mean_motion": 15.28017101,
        "meta_eccentricity": 0.0006817,
        "meta_inclination": 97.2822,
        "meta_ra_of_asc_node": 33.0906,
        "meta_arg_of_pericenter": 91.5267,
        "meta_mean_anomaly": 268.6753,
        "meta_ephemeris_type": 0,
        "meta_classification_type": "U",
        "meta_norad_cat_id": 57401,
        "meta_element_set_no": 999,
        "meta_rev_at_epoch": 13271,
        "meta_bstar": 0.0004251,
        "meta_mean_motion_dot": 0.00011559,
        "meta_mean_motion_ddot": 0,
        "tle_line1": "1 57401U 23101C   25343.86413031  .00011559  00000+0  42510-3 0  9992",
        "tle_line2": "2 57401  97.2822  33.0906 0006817  91.5267 268.6753 15.28017101132719"
      },
      "geometry": {
        "type": "Point",
        "coordinates": [
          -142.04962419157167,
          30.508420304399632
        ]
      }
    },
    {
      "type": "Feature",
      "properties": {
        "norad_id": 57402,
        "name": "TIANMU-1 10",
        "group": "weather",
        "lat": -38.75711609105429,
        "lon": 40.37512678655866,
        "alt_km": 491.9394644081631,
        "timestamp": "2025-12-10T09:57:44.348160+00:00",
        "meta_object_name": "TIANMU-1 10",
        "meta_object_id": "2023-101D",
        "meta_epoch": "2025-12-09T19:59:17.623968",
        "meta_mean_motion": 15.28006823,
        "meta_eccentricity": 0.0008569,
        "meta_inclination": 97.2902,
        "meta_ra_of_asc_node": 33.9067,
        "meta_arg_of_pericenter": 91.7649,
        "meta_mean_anomaly": 268.4572,
        "meta_ephemeris_type": 0,
        "meta_classification_type": "U",
        "meta_norad_cat_id": 57402,
        "meta_element_set_no": 999,
        "meta_rev_at_epoch": 13270,
        "meta_bstar": 0.00043272,
        "meta_mean_motion_dot": 0.00011769,
        "meta_mean_motion_ddot": 0,
        "tle_line1": "1 57402U 23101D   25343.83284287  .00011769  00000+0  43272-3 0  9998",
        "tle_line2": "2 57402  97.2902  33.9067 0008569  91.7649 268.4572 15.28006823132703"
      },
      "geometry": {
        "type": "Point",
        "coordinates": [
          40.37512678655866,
          -38.75711609105429
        ]
      }
    },
    {
      "type": "Feature",
      "properties": {
        "norad_id": 57490,
        "name": "FENGYUN 3F",
        "group": "weather",
        "lat": 43.55690002584603,
        "lon": 44.365743810634875,
        "alt_km": 821.7395665737713,
        "timestamp": "2025-12-10T09:57:44.348171+00:00",
        "meta_object_name": "FENGYUN 3F",
        "meta_object_id": "2023-111A",
        "meta_epoch": "2025-12-10T04:40:52.383072",
        "meta_mean_motion": 14.19892534,
        "meta_eccentricity": 6.48e-05,
        "meta_inclination": 98.7087,
        "meta_ra_of_asc_node": 52.5295,
        "meta_arg_of_pericenter": 97.0114,
        "meta_mean_anomaly": 263.1136,
        "meta_ephemeris_type": 0,
        "meta_classification_type": "U",
        "meta_norad_cat_id": 57490,
        "meta_element_set_no": 999,
        "meta_rev_at_epoch": 12204,
        "meta_bstar": 8.6087e-05,
        "meta_mean_motion_dot": 1.39e-06,
        "meta_mean_motion_ddot": 0,
        "tle_line1": "1 57490U 23111A   25344.19505073  .00000139  00000+0  86087-4 0  9996",
        "tle_line2": "2 57490  98.7087  52.5295 0000648  97.0114 263.1136 14.19892534122041"
      },
      "geometry": {
        "type": "Point",
        "coordinates": [
          44.365743810634875,
          43.55690002584603
        ]
      }
    },
    {
      "type": "Feature",
      "properties": {
        "norad_id": 58584,
        "name": "ARKTIKA-M 2",
        "group": "weather",
        "lat": 47.63842306006532,
        "lon": -151.2268912752956,
        "alt_km": 27116.246069830337,
        "timestamp": "2025-12-10T09:57:44.348183+00:00",
        "meta_object_name": "ARKTIKA-M 2",
        "meta_object_id": "2023-198A",
        "meta_epoch": "2025-12-08T20:10:13.977120",
        "meta_mean_motion": 2.0060476,
        "meta_eccentricity": 0.68646991,
        "meta_inclination": 63.2247,
        "meta_ra_of_asc_node": 175.3152,
        "meta_arg_of_pericenter": 268.1185,
        "meta_mean_anomaly": 18.8267,
        "meta_ephemeris_type": 0,
        "meta_classification_type": "U",
        "meta_norad_cat_id": 58584,
        "meta_element_set_no": 999,
        "meta_rev_at_epoch": 1450,
        "meta_bstar": 0,
        "meta_mean_motion_dot": 1.66e-06,
        "meta_mean_motion_ddot": 0,
        "tle_line1": "1 58584U 23198A   25342.84043955  .00000166  00000+0  00000+0 0  9998",
        "tle_line2": "2 58584  63.2247 175.3152 6864699 268.1185  18.8267  2.00604760 14506"
      },
      "geometry": {
        "type": "Point",
        "coordinates": [
          -151.2268912752956,
          47.63842306006532
        ]
      }
    },
    {
      "type": "Feature",
      "properties": {
        "norad_id": 58645,
        "name": "TIANMU-1 11",
        "group": "weather",
        "lat": 10.676619674973722,
        "lon": -174.5244774330262,
        "alt_km": 498.62536663563696,
        "timestamp": "2025-12-10T09:57:44.348199+00:00",
        "meta_object_name": "TIANMU-1 11",
        "meta_object_id": "2023-205A",
        "meta_epoch": "2025-12-09T20:37:13.609056",
        "meta_mean_motion": 15.24544377,
        "meta_eccentricity": 0.0008148,
        "meta_inclination": 97.3609,
        "meta_ra_of_asc_node": 3.5328,
        "meta_arg_of_pericenter": 322.2029,
        "meta_mean_anomaly": 37.8635,
        "meta_ephemeris_type": 0,
        "meta_classification_type": "U",
        "meta_norad_cat_id": 58645,
        "meta_element_set_no": 999,
        "meta_rev_at_epoch": 10865,
        "meta_bstar": 0.00040058,
        "meta_mean_motion_dot": 9.803e-05,
        "meta_mean_motion_ddot": 0,
        "tle_line1": "1 58645U 23205A   25343.85918529  .00009803  00000+0  40058-3 0  9993",
        "tle_line2": "2 58645  97.3609   3.5328 0008148 322.2029  37.8635 15.24544377108650"
      },
      "geometry": {
        "type": "Point",
        "coordinates": [
          -174.5244774330262,
          10.676619674973722
        ]
      }
    },
    {
      "type": "Feature",
      "properties": {
        "norad_id": 58646,
        "name": "TIANMU-1 12",
        "group": "weather",
        "lat": 22.120640156382294,
        "lon": 0.8736324453331831,
        "alt_km": 491.5834144805631,
        "timestamp": "2025-12-10T09:57:44.348209+00:00",
        "meta_object_name": "TIANMU-1 12",
        "meta_object_id": "2023-205B",
        "meta_epoch": "2025-12-09T21:15:42.555744",
        "meta_mean_motion": 15.24425295,
        "meta_eccentricity": 0.0006046,
        "meta_inclination": 97.3597,
        "meta_ra_of_asc_node": 3.3655,
        "meta_arg_of_pericenter": 304.2794,
        "meta_mean_anomaly": 55.7871,
        "meta_ephemeris_type": 0,
        "meta_classification_type": "U",
        "meta_norad_cat_id": 58646,
        "meta_element_set_no": 999,
        "meta_rev_at_epoch": 10864,
        "meta_bstar": 0.00041839,
        "meta_mean_motion_dot": 0.00010202,
        "meta_mean_motion_ddot": 0,
        "tle_line1": "1 58646U 23205B   25343.88590921  .00010202  00000+0  41839-3 0  9992",
        "tle_line2": "2 58646  97.3597   3.3655 0006046 304.2794  55.7871 15.24425295108649"
      },
      "geometry": {
        "type": "Point",
        "coordinates": [
          0.8736324453331831,
          22.120640156382294
        ]
      }
    }
  ]
}